{
  "type": "FeatureCollection",
  "features": [
    {
      "type": "Feature",
      "properties": {
        "norad_id": 33738,
        "name": "FENGYUN 1C DEB",
        "group": "fengyun-1c-debris",
        "lat": -64.74102017127278,
        "lon": -156.5384188469984,
        "alt_km": 1010.9714275748256,
        "timestamp": "2025-12-09T09:46:47.933623+00:00",
        "meta_object_name": "FENGYUN 1C DEB",
        "meta_object_id": "1999-025DJB",
        "meta_epoch": "2025-12-08T10:23:53.291616",
        "meta_mean_motion": 13.99521781,
        "meta_eccentricity": 0.01848864,
        "meta_inclination": 99.1525,
        "meta_ra_of_asc_node": 42.467,
        "meta_arg_of_pericenter": 33.2789,
        "meta_mean_anomaly": 348.4418,
        "meta_ephemeris_type": 0,
        "meta_classification_type": "U",
        "meta_norad_cat_id": 33738,
        "meta_element_set_no": 999,
        "meta_rev_at_epoch": 89176,
        "meta_bstar": 0.00086097003,
        "meta_mean_motion_dot": 1.411e-05,
        "meta_mean_motion_ddot": 0,
        "tle_line1": "1 33738U 99025DJB 25342.43325569  .00001411  00000+0  86097-3 0  9991",
        "tle_line2": "2 33738  99.1525  42.4670 0184886  33.2789 348.4418 13.99521781891766"
      },
      "geometry": {
        "type": "Point",
        "coordinates": [
          -156.5384188469984,
          -64.74102017127278
        ]
      }
    },
    {
      "type": "Feature",
      "properties": {
        "norad_id": 33740,
        "name": "FENGYUN 1C DEB",
        "group": "fengyun-1c-debris",
        "lat": 46.59549601762389,
        "lon": -174.27616513935655,
        "alt_km": 845.905187370191,
        "timestamp": "2025-12-09T09:46:47.933634+00:00",
        "meta_object_name": "FENGYUN 1C DEB",
        "meta_object_id": "1999-025DJD",
        "meta_epoch": "2025-12-08T21:15:08.064000",
        "meta_mean_motion": 14.12319103,
        "meta_eccentricity": 0.00019436,
        "meta_inclination": 98.6873,
        "meta_ra_of_asc_node": 355.9151,
        "meta_arg_of_pericenter": 135.4642,
        "meta_mean_anomaly": 224.6686,
        "meta_ephemeris_type": 0,
        "meta_classification_type": "U",
        "meta_norad_cat_id": 33740,
        "meta_element_set_no": 999,
        "meta_rev_at_epoch": 90092,
        "meta_bstar": 0.00020665103,
        "meta_mean_motion_dot": 3.38e-06,
        "meta_mean_motion_ddot": 0,
        "tle_line1": "1 33740U 99025DJD 25342.88551000  .00000338  00000+0  20665-3 0  9990",
        "tle_line2": "2 33740  98.6873 355.9151 0001943 135.4642 224.6686 14.12319103900920"
      },
      "geometry": {
        "type": "Point",
        "coordinates": [
          -174.27616513935655,
          46.59549601762389
        ]
      }
    },
    {
      "type": "Feature",
      "properties": {
        "norad_id": 33741,
        "name": "FENGYUN 1C DEB",
        "group": "fengyun-1c-debris",
        "lat": -23.067566343213848,
        "lon": 73.48505361864582,
        "alt_km": 889.0535725744785,
        "timestamp": "2025-12-09T09:46:47.933655+00:00",
        "meta_object_name": "FENGYUN 1C DEB",
        "meta_object_id": "1999-025DJE",
        "meta_epoch": "2025-12-08T17:30:07.987968",
        "meta_mean_motion": 14.09769403,
        "meta_eccentricity": 0.01273765,
        "meta_inclination": 98.5641,
        "meta_ra_of_asc_node": 256.5189,
        "meta_arg_of_pericenter": 99.6615,
        "meta_mean_anomaly": 261.8972,
        "meta_ephemeris_type": 0,
        "meta_classification_type": "U",
        "meta_norad_cat_id": 33741,
        "meta_element_set_no": 999,
        "meta_rev_at_epoch": 56806,
        "meta_bstar": 0.0028266732,
        "meta_mean_motion_dot": 5.316e-05,
        "meta_mean_motion_ddot": 0,
        "tle_line1": "1 33741U 99025DJE 25342.72925912  .00005316  00000+0  28267-2 0  9997",
        "tle_line2": "2 33741  98.5641 256.5189 0127376  99.6615 261.8972 14.09769403568064"
      },
      "geometry": {
        "type": "Point",
        "coordinates": [
          73.48505361864582,
          -23.067566343213848
        ]
      }
    },
    {
      "type": "Feature",
      "properties": {
        "norad_id": 33745,
        "name": "FENGYUN 1C DEB",
        "group": "fengyun-1c-debris",
        "lat": 51.33413294051657,
        "lon": 8.882032280177597,
        "alt_km": 840.1776819427241,
        "timestamp": "2025-12-09T09:46:47.933668+00:00",
        "meta_object_name": "FENGYUN 1C DEB",
        "meta_object_id": "1999-025DJJ",
        "meta_epoch": "2025-11-25T01:05:32.743968",
        "meta_mean_motion": 14.22170506,
        "meta_eccentricity": 0.00530671,
        "meta_inclination": 99.1146,
        "meta_ra_of_asc_node": 5.6166,
        "meta_arg_of_pericenter": 317.4724,
        "meta_mean_anomaly": 42.2348,
        "meta_ephemeris_type": 0,
        "meta_classification_type": "U",
        "meta_norad_cat_id": 33745,
        "meta_element_set_no": 999,
        "meta_rev_at_epoch": 65750,
        "meta_bstar": 0.0015193996,
        "meta_mean_motion_dot": 3.37e-05,
        "meta_mean_motion_ddot": 0,
        "tle_line1": "1 33745U 99025DJJ 25329.04551787  .00003370  00000+0  15194-2 0  9999",
        "tle_line2": "2 33745  99.1146   5.6166 0053067 317.4724  42.2348 14.22170506657501"
      },
      "geometry": {
        "type": "Point",
        "coordinates": [
          8.882032280177597,
          51.33413294051657
        ]
      }
    },
    {
      "type": "Feature",
      "properties": {
        "norad_id": 33747,
        "name": "FENGYUN 1C DEB",
        "group": "fengyun-1c-debris",
        "lat": 25.887262400816184,
        "lon": 73.54829176513246,
        "alt_km": 894.2342369418357,
        "timestamp": "2025-12-09T09:46:47.933679+00:00",
        "meta_object_name": "FENGYUN 1C DEB",
        "meta_object_id": "1999-025DJL",
        "meta_epoch": "2025-12-07T00:03:01.560960",
        "meta_mean_motion": 14.17338054,
        "meta_eccentricity": 0.00899301,
        "meta_inclination": 99.098,
        "meta_ra_of_asc_node": 75.547,
        "meta_arg_of_pericenter": 232.9564,
        "meta_mean_anomaly": 126.336,
        "meta_ephemeris_type": 0,
        "meta_classification_type": "U",
        "meta_norad_cat_id": 33747,
        "meta_element_set_no": 999,
        "meta_rev_at_epoch": 90051,
        "meta_bstar": 0.0039970984,
        "meta_mean_motion_dot": 8.373e-05,
        "meta_mean_motion_ddot": 0,
        "tle_line1": "1 33747U 99025DJL 25341.00210140  .00008373  00000+0  39971-2 0  9993",
        "tle_line2": "2 33747  99.0980  75.5470 0089930 232.9564 126.3360 14.17338054900511"
      },
      "geometry": {
        "type": "Point",
        "coordinates": [
          73.54829176513246,
          25.887262400816184
        ]
      }
    },
    {
      "type": "Feature",
      "properties": {
        "norad_id": 33748,
        "name": "FENGYUN 1C DEB",
        "group": "fengyun-1c-debris",
        "lat": -45.86184952711911,
        "lon": -154.36357472441398,
        "alt_km": 768.5203198436584,
        "timestamp": "2025-12-09T09:46:47.933689+00:00",
        "meta_object_name": "FENGYUN 1C DEB",
        "meta_object_id": "1999-025DJM",
        "meta_epoch": "2025-12-08T14:16:48.755136",
        "meta_mean_motion": 14.32240798,
        "meta_eccentricity": 0.0034418,
        "meta_inclination": 98.5864,
        "meta_ra_of_asc_node": 33.7899,
        "meta_arg_of_pericenter": 253.4842,
        "meta_mean_anomaly": 106.2559,
        "meta_ephemeris_type": 0,
        "meta_classification_type": "U",
        "meta_norad_cat_id": 33748,
        "meta_element_set_no": 999,
        "meta_rev_at_epoch": 91334,
        "meta_bstar": 0.0020881,
        "meta_mean_motion_dot": 5.626e-05,
        "meta_mean_motion_ddot": 0,
        "tle_line1": "1 33748U 99025DJM 25342.59500874  .00005626  00000+0  20881-2 0  9993",
        "tle_line2": "2 33748  98.5864  33.7899 0034418 253.4842 106.2559 14.32240798913342"
      },
      "geometry": {
        "type": "Point",
        "coordinates": [
          -154.36357472441398,
          -45.86184952711911
        ]
      }
    },
    {
      "type": "Feature",
      "properties": {
        "norad_id": 35088,
        "name": "FENGYUN 1C DEB",
        "group": "fengyun-1c-debris",
        "lat": -7.24209932962703,
        "lon": -20.003869186052615,
        "alt_km": 682.2607269692317,
        "timestamp": "2025-12-09T09:46:47.933700+00:00",
        "meta_object_name": "FENGYUN 1C DEB",
        "meta_object_id": "1999-025DJQ",
        "meta_epoch": "2025-12-05T18:07:13.251936",
        "meta_mean_motion": 14.11541767,
        "meta_eccentricity": 0.0269112,
        "meta_inclination": 94.6213,
        "meta_ra_of_asc_node": 158.6962,
        "meta_arg_of_pericenter": 224.9702,
        "meta_mean_anomaly": 132.9405,
        "meta_ephemeris_type": 0,
        "meta_classification_type": "U",
        "meta_norad_cat_id": 35088,
        "meta_element_set_no": 999,
        "meta_rev_at_epoch": 58701,
        "meta_bstar": 0.013442762,
        "meta_mean_motion_dot": 0.00034432,
        "meta_mean_motion_ddot": 0,
        "tle_line1": "1 35088U 99025DJQ 25339.75501449  .00034432  00000+0  13443-1 0  9997",
        "tle_line2": "2 35088  94.6213 158.6962 0269112 224.9702 132.9405 14.11541767587017"
      },
      "geometry": {
        "type": "Point",
        "coordinates": [
          -20.003869186052615,
          -7.24209932962703
        ]
      }
    }
  ]
}